IRIDIUM 63              
1 25286U 98021B   25073.58403517  .00000804  00000+0  26796-3 0  9997
2 25286  86.3965 121.8331 0002215  97.0848 263.0601 14.36419509410260
IRIDIUM 69              
1 25319U 98026A   25073.60837394  .00001089  00000+0  33406-3 0  9998
2 25319  86.3990 135.3927 0002351  35.2782 324.8573 14.40816290409443
IRIDIUM 71              
1 25320U 98026B   25073.55866130  .00000951  00000+0  28982-3 0  9994
2 25320  86.3977 130.1237 0003937  67.6330 292.5286 14.41024021409969
IRIDIUM 73              
1 25344U 98032C   25073.55597793  .00001453  00000+0  35870-3 0  9995
2 25344  86.4352  87.0174 0001998  75.4891 284.6536 14.51497575416830
IRIDIUM 82              
1 25467U 98051A   25073.62343135  .00038033  00000+0  12878-2 0  9995
2 25467  86.3748 156.0215 0093596 294.2530  64.8958 15.26228502409500
